NORAD_CAT_ID,OBJECT_NAME,OBJECT_TYPE,EPOCH,MEAN_MOTION,ECCENTRICITY,INCLINATION,RA_OF_ASC_NODE,ARG_OF_PERICENTER,MEAN_ANOMALY,BSTAR,MEAN_MOTION_DOT,MEAN_MOTION_DDOT,TLE_LINE0,TLE_LINE1,TLE_LINE2,SEMIMAJOR_AXIS,PERIOD,APOGEE,PERIGEE,DECAYED
52634.0,STARLINK-3974,PAYLOAD,2023-04-13 00:23:07,15.08855754,0.0001182,53.216,355.1874,90.324,269.7888,0.00077089,0.00012007,0.0,0 STARLINK-3974,1 52634U 22052AN  23103.01606365  .00012007  00000-0  77089-3 0  9991,2 52634  53.2160 355.1874 0001182  90.3240 269.7888 15.08855754 51093,6917.832,95.437,540.515,538.88,0.0
52634.0,STARLINK-3974,PAYLOAD,2023-04-14 03:24:41,15.08846377,0.0001051,53.2175,350.1338,93.5989,266.5124,0.00046644,7.145e-05,0.0,0 STARLINK-3974,1 52634U 22052AN  23104.14214424  .00007145  00000-0  46644-3 0  9997,2 52634  53.2175 350.1338 0001051  93.5989 266.5124 15.08846377 50884,6917.861,95.437,540.453,538.999,0.0
52634.0,STARLINK-3974,PAYLOAD,2023-04-15 01:40:04,15.08850238,0.000106,53.2166,345.9693,86.7223,273.3891,0.00025051,3.702e-05,0.0,0 STARLINK-3974,1 52634U 22052AN  23105.06950120  .00003702  00000-0  25051-3 0  9993,2 52634  53.2166 345.9693 0001060  86.7223 273.3891 15.08850238 51402,6917.849,95.437,540.447,538.981,0.0
52634.0,STARLINK-3974,PAYLOAD,2023-04-15 19:09:20,15.08838942,0.0001105,53.2176,342.6977,93.3488,266.763,7.2757e-05,8.7e-06,0.0,0 STARLINK-3974,1 52634U 22052AN  23105.79814819  .00000870  00000-0  72757-4 0  9996,2 52634  53.2176 342.6977 0001105  93.3488 266.7630 15.08838942 51516,6917.884,95.438,540.513,538.984,0.0
52634.0,STARLINK-3974,PAYLOAD,2023-04-15 22:20:06,15.08841733,0.0001084,53.2176,342.1028,95.6572,264.4544,0.00012004,1.623e-05,0.0,0 STARLINK-3974,1 52634U 22052AN  23105.93062671  .00001623  00000-0  12004-3 0  9998,2 52634  53.2176 342.1028 0001084  95.6572 264.4544 15.08841733 51154,6917.875,95.437,540.49,538.99,0.0
52634.0,STARLINK-3974,PAYLOAD,2023-04-16 01:30:52,15.08846512,0.0001241,53.2178,341.5077,97.3661,262.7473,0.00021441,3.127e-05,0.0,0 STARLINK-3974,1 52634U 22052AN  23106.06310517  .00003127  00000-0  21441-3 0  9994,2 52634  53.2178 341.5077 0001241  97.3661 262.7473 15.08846512 51552,6917.86,95.437,540.584,538.867,0.0
52634.0,STARLINK-3974,PAYLOAD,2023-04-16 22:10:52,15.08848121,0.0001005,53.2168,337.644,104.9255,255.1848,7.2833e-05,8.72e-06,0.0,0 STARLINK-3974,1 52634U 22052AN  23106.92422294  .00000872  00000-0  72833-4 0  9991,2 52634  53.2168 337.6440 0001005 104.9255 255.1848 15.08848121 51306,6917.856,95.437,540.416,539.025,0.0
52634.0,STARLINK-3974,PAYLOAD,2023-04-16 23:46:16,15.08847636,0.0001166,53.2173,337.3459,108.8109,251.301,0.00019101,2.754e-05,0.0,0 STARLINK-3974,1 52634U 22052AN  23106.99046366  .00002754  00000-0  19101-3 0  9999,2 52634  53.2173 337.3459 0001166 108.8109 251.3010 15.08847636 51699,6917.857,95.437,540.529,538.915,0.0
52634.0,STARLINK-3974,PAYLOAD,2023-04-17 20:26:17,15.08840381,0.0001187,53.2181,333.482,112.7035,247.4083,4.418e-05,4.15e-06,0.0,0 STARLINK-3974,1 52634U 22052AN  23107.85158951  .00000415  00000-0  44180-4 0  9997,2 52634  53.2181 333.4820 0001187 112.7035 247.4083 15.08840381 51823,6917.879,95.438,540.565,538.923,0.0
52634.0,STARLINK-3974,PAYLOAD,2023-04-17 22:01:40,15.08842003,0.0001182,53.2181,333.1858,111.7317,248.3801,5.2876e-05,5.54e-06,0.0,0 STARLINK-3974,1 52634U 22052AN  23107.91782660  .00000554  00000-0  52876-4 0  9999,2 52634  53.2181 333.1858 0001182 111.7317 248.3801 15.08842003 51458,6917.874,95.437,540.557,538.922,0.0
52634.0,STARLINK-3974,PAYLOAD,2023-04-18 01:12:26,15.08845154,0.0001164,53.2174,332.5894,110.9823,249.1293,0.00010511,1.386e-05,0.0,0 STARLINK-3974,1 52634U 22052AN  23108.05030459  .00001386  00000-0  10511-3 0  9990,2 52634  53.2174 332.5894 0001164 110.9823 249.1293 15.08845154 51472,6917.865,95.437,540.535,538.924,0.0
52634.0,STARLINK-3974,PAYLOAD,2023-04-18 23:27:50,15.08840853,0.0001107,53.2172,328.428,113.1598,246.9511,3.3002e-05,2.37e-06,0.0,0 STARLINK-3974,1 52634U 22052AN  23108.97767096  .00000237  00000-0  33002-4 0  9990,2 52634  53.2172 328.4280 0001107 113.1598 246.9511 15.08840853 51990,6917.878,95.438,540.509,538.977,0.0
52634.0,STARLINK-3974,PAYLOAD,2023-04-20 00:54:00,15.08848472,9.01e-05,53.2153,323.667,89.5866,270.5229,0.00020786,3.023e-05,0.0,0 STARLINK-3974,1 52634U 22052AN  23110.03750870  .00003023  00000-0  20786-3 0  9992,2 52634  53.2153 323.6670 0000901  89.5866 270.5229 15.08848472 52157,6917.854,95.437,540.343,539.096,0.0
52634.0,STARLINK-3974,PAYLOAD,2023-04-21 13:27:53,15.08837112,9.25e-05,53.2169,316.8248,95.6545,264.4553,-5.1118e-06,-3.69e-06,0.0,0 STARLINK-3974,1 52634U 22052AN  23111.56103468 -.00000369  00000-0 -51118-5 0  9993,2 52634  53.2169 316.8248 0000925  95.6545 264.4553 15.08837112 52002,6917.889,95.438,540.394,539.114,0.0
52634.0,STARLINK-3974,PAYLOAD,2023-04-21 16:38:39,15.08844372,9.02e-05,53.2166,316.2332,78.4699,281.6395,6.5557e-05,7.56e-06,0.0,0 STARLINK-3974,1 52634U 22052AN  23111.69351115  .00000756  00000-0  65557-4 0  9990,2 52634  53.2166 316.2332 0000902  78.4699 281.6395 15.08844372 52406,6917.867,95.437,540.356,539.108,0.0
52634.0,STARLINK-3974,PAYLOAD,2023-04-21 19:49:25,15.08843981,9.41e-05,53.2156,315.637,90.8088,269.3012,6.6847e-05,7.76e-06,0.0,0 STARLINK-3974,1 52634U 22052AN  23111.82599072  .00000776  00000-0  66847-4 0  9996,2 52634  53.2156 315.6370 0000941  90.8088 269.3012 15.08843981 52047,6917.868,95.437,540.384,539.082,0.0
52634.0,STARLINK-3974,PAYLOAD,2023-04-22 13:18:40,15.08839668,0.0001114,53.2162,312.3681,69.3792,290.732,9.711e-05,1.258e-05,0.0,0 STARLINK-3974,1 52634U 22052AN  23112.55463371  .00001258  00000-0  97110-4 0  9992,2 52634  53.2162 312.3681 0001114  69.3792 290.7320 15.08839668 52158,6917.881,95.438,540.517,538.976,0.0
52634.0,STARLINK-3974,PAYLOAD,2023-04-22 19:40:12,15.08845874,8.54e-05,53.2159,311.1771,92.7691,267.3399,5.6515e-05,6.12e-06,0.0,0 STARLINK-3974,1 52634U 22052AN  23112.81958871  .00000612  00000-0  56515-4 0  9992,2 52634  53.2159 311.1771 0000854  92.7691 267.3399 15.08845874 52195,6917.862,95.437,540.318,539.137,0.0
52634.0,STARLINK-3974,PAYLOAD,2023-04-23 13:09:27,15.08838871,9.5e-05,53.2158,307.9072,74.743,285.3668,0.00010152,1.328e-05,0.0,0 STARLINK-3974,1 52634U 22052AN  23113.54823499  .00001328  00000-0  10152-3 0  9991,2 52634  53.2158 307.9072 0000950  74.7430 285.3668 15.08838871 52300,6917.884,95.438,540.406,539.092,0.0
52634.0,STARLINK-3974,PAYLOAD,2023-04-23 14:44:50,15.08838679,9.99e-05,53.2158,307.6088,92.436,267.6746,1.1453e-05,-1.05e-06,0.0,0 STARLINK-3974,1 52634U 22052AN  23113.61447443 -.00000105  00000-0  11453-4 0  9999,2 52634  53.2158 307.6088 0000999  92.4360 267.6746 15.08838679 52694,6917.884,95.438,540.441,539.058,0.0
52634.0,STARLINK-3974,PAYLOAD,2023-04-23 22:41:45,15.08847827,0.000102,53.2163,306.1228,83.797,276.3138,0.00012519,1.706e-05,0.0,0 STARLINK-3974,1 52634U 22052AN  23113.94567029  .00001706  00000-0  12519-3 0  9998,2 52634  53.2163 306.1228 0001020  83.7970 276.3138 15.08847827 52367,6917.856,95.437,540.427,539.016,0.0
52634.0,STARLINK-3974,PAYLOAD,2023-04-24 14:35:36,15.08862889,9.48e-05,53.2164,303.1478,97.1843,262.9257,0.00041363,6.305e-05,0.0,0 STARLINK-3974,1 52634U 22052AN  23114.60806067  .00006305  00000-0  41363-3 0  9999,2 52634  53.2164 303.1478 0000948  97.1843 262.9257 15.08862889 52849,6917.81,95.436,540.331,539.02,0.0
52634.0,STARLINK-3974,PAYLOAD,2023-04-25 12:51:02,15.08798134,0.0001529,53.2198,298.9889,94.1882,265.9284,-0.00122,-0.00019629,0.0,0 STARLINK-3974,1 52634U 22052AN  23115.53543997 -.00019629  00000-0 -12200-2 0  9994,2 52634  53.2198 298.9889 0001529  94.1882 265.9284 15.08798134 52988,6918.008,95.44,540.931,538.816,0.0
52634.0,STARLINK-3974,PAYLOAD,2023-04-26 11:06:27,15.0882322,8.32e-05,53.2166,294.8229,41.6772,318.4284,0.0018473,0.0002922,0.0,0 STARLINK-3974,1 52634U 22052AN  23116.46282406  .00029220  00000-0  18473-2 0  9996,2 52634  53.2166 294.8229 0000832  41.6772 318.4284 15.08823220 52740,6917.932,95.439,540.372,539.221,0.0
52634.0,STARLINK-3974,PAYLOAD,2023-04-26 19:03:23,15.08849199,0.0001127,53.216,293.3358,43.3254,316.7827,0.0016613,0.00026257,0.0,0 STARLINK-3974,1 52634U 22052AN  23116.79402162  .00026257  00000-0  16613-2 0  9996,2 52634  53.2160 293.3358 0001127  43.3254 316.7827 15.08849199 52795,6917.852,95.437,540.497,538.938,0.0
52634.0,STARLINK-3974,PAYLOAD,2023-04-27 04:35:41,15.08866002,0.0001026,53.2157,291.5522,37.8385,322.2679,0.0010444,0.00016385,0.0,0 STARLINK-3974,1 52634U 22052AN  23117.19145425  .00016385  00000-0  10444-2 0  9994,2 52634  53.2157 291.5522 0001026  37.8385 322.2679 15.08866002 52851,6917.801,95.436,540.376,538.956,0.0
52634.0,STARLINK-3974,PAYLOAD,2023-04-27 14:07:59,15.08871747,0.0001211,53.2149,289.7674,42.6927,317.4159,0.00063907,9.906e-05,0.0,0 STARLINK-3974,1 52634U 22052AN  23117.58888692  .00009906  00000-0  63907-3 0  9991,2 52634  53.2149 289.7674 0001211  42.6927 317.4159 15.08871747 53291,6917.783,95.436,540.486,538.811,0.0
52634.0,STARLINK-3974,PAYLOAD,2023-04-28 10:48:00,15.08848068,0.0001161,53.2154,285.902,51.117,308.9926,-0.00023515,-4.029e-05,0.0,0 STARLINK-3974,1 52634U 22052AN  23118.45000077 -.00004029  00000-0 -23515-3 0  9995,2 52634  53.2154 285.9020 0001161  51.1170 308.9926 15.08848068 53421,6917.856,95.437,540.524,538.918,0.0
52634.0,STARLINK-3974,PAYLOAD,2023-04-29 10:38:47,15.08843875,0.0001316,53.2153,281.4425,55.1317,304.9799,0.0002016,2.922e-05,0.0,0 STARLINK-3974,1 52634U 22052AN  23119.44360136  .00002922  00000-0  20160-3 0  9991,2 52634  53.2153 281.4425 0001316  55.1317 304.9799 15.08843875 53198,6917.869,95.437,540.644,538.823,0.0
52634.0,STARLINK-3974,PAYLOAD,2023-04-29 17:00:19,15.08845022,0.0001294,53.215,280.253,54.2863,305.825,0.00034165,5.154e-05,0.0,0 STARLINK-3974,1 52634U 22052AN  23119.70856127  .00005154  00000-0  34165-3 0  9990,2 52634  53.2150 280.2530 0001294  54.2863 305.8250 15.08845022 53615,6917.865,95.437,540.625,538.835,0.0
